<?xml version="1.0" encoding="UTF-8"?>
<ndm xmlns:xsi="http://www.w3.org/2001/XMLSchema-instance" xsi:noNamespaceSchemaLocation="https://sanaregistry.org/r/ndmxml_unqualified/ndmxml-2.0.0-master-2.0.xsd">
<omm id="CCSDS_OMM_VERS" version="2.0">
<header><CREATION_DATE/><ORIGINATOR/></header><body><segment><metadata><OBJECT_NAME>ORBCOMM-X</OBJECT_NAME><OBJECT_ID>1991-050C</OBJECT_ID><CENTER_NAME>EARTH</CENTER_NAME><REF_FRAME>TEME</REF_FRAME><TIME_SYSTEM>UTC</TIME_SYSTEM><MEAN_ELEMENT_THEORY>SGP4</MEAN_ELEMENT_THEORY></metadata><data><meanElements><EPOCH>2025-02-07T19:07:16.519872</EPOCH><MEAN_MOTION>14.43077477</MEAN_MOTION><ECCENTRICITY>.0003165</ECCENTRICITY><INCLINATION>98.3604</INCLINATION><RA_OF_ASC_NODE>107.9537</RA_OF_ASC_NODE><ARG_OF_PERICENTER>200.1681</ARG_OF_PERICENTER><MEAN_ANOMALY>159.9385</MEAN_ANOMALY></meanElements><tleParameters><EPHEMERIS_TYPE>0</EPHEMERIS_TYPE><CLASSIFICATION_TYPE>U</CLASSIFICATION_TYPE><NORAD_CAT_ID>21576</NORAD_CAT_ID><ELEMENT_SET_NO>999</ELEMENT_SET_NO><REV_AT_EPOCH>76345</REV_AT_EPOCH><BSTAR>.21768E-3</BSTAR><MEAN_MOTION_DOT>.687E-5</MEAN_MOTION_DOT><MEAN_MOTION_DDOT>0</MEAN_MOTION_DDOT></tleParameters></data></segment></body></omm>
<omm id="CCSDS_OMM_VERS" version="2.0">
<header><CREATION_DATE/><ORIGINATOR/></header><body><segment><metadata><OBJECT_NAME>ORBCOMM FM01</OBJECT_NAME><OBJECT_ID>1995-017A</OBJECT_ID><CENTER_NAME>EARTH</CENTER_NAME><REF_FRAME>TEME</REF_FRAME><TIME_SYSTEM>UTC</TIME_SYSTEM><MEAN_ELEMENT_THEORY>SGP4</MEAN_ELEMENT_THEORY></metadata><data><meanElements><EPOCH>2025-02-08T10:01:20.453376</EPOCH><MEAN_MOTION>14.87409322</MEAN_MOTION><ECCENTRICITY>.0003793</ECCENTRICITY><INCLINATION>69.9646</INCLINATION><RA_OF_ASC_NODE>34.6733</RA_OF_ASC_NODE><ARG_OF_PERICENTER>225.9468</ARG_OF_PERICENTER><MEAN_ANOMALY>134.1373</MEAN_ANOMALY></meanElements><tleParameters><EPHEMERIS_TYPE>0</EPHEMERIS_TYPE><CLASSIFICATION_TYPE>U</CLASSIFICATION_TYPE><NORAD_CAT_ID>23545</NORAD_CAT_ID><ELEMENT_SET_NO>999</ELEMENT_SET_NO><REV_AT_EPOCH>59369</REV_AT_EPOCH><BSTAR>.10235E-2</BSTAR><MEAN_MOTION_DOT>.9203E-4</MEAN_MOTION_DOT><MEAN_MOTION_DDOT>0</MEAN_MOTION_DDOT></tleParameters></data></segment></body></omm>
<omm id="CCSDS_OMM_VERS" version="2.0">
<header><CREATION_DATE/><ORIGINATOR/></header><body><segment><metadata><OBJECT_NAME>ORBCOMM FM02</OBJECT_NAME><OBJECT_ID>1995-017B</OBJECT_ID><CENTER_NAME>EARTH</CENTER_NAME><REF_FRAME>TEME</REF_FRAME><TIME_SYSTEM>UTC</TIME_SYSTEM><MEAN_ELEMENT_THEORY>SGP4</MEAN_ELEMENT_THEORY></metadata><data><meanElements><EPOCH>2025-02-07T11:18:44.526816</EPOCH><MEAN_MOTION>14.87678816</MEAN_MOTION><ECCENTRICITY>.0004233</ECCENTRICITY><INCLINATION>69.9660</INCLINATION><RA_OF_ASC_NODE>56.6969</RA_OF_ASC_NODE><ARG_OF_PERICENTER>211.1325</ARG_OF_PERICENTER><MEAN_ANOMALY>148.9578</MEAN_ANOMALY></meanElements><tleParameters><EPHEMERIS_TYPE>0</EPHEMERIS_TYPE><CLASSIFICATION_TYPE>U</CLASSIFICATION_TYPE><NORAD_CAT_ID>23546</NORAD_CAT_ID><ELEMENT_SET_NO>999</ELEMENT_SET_NO><REV_AT_EPOCH>59284</REV_AT_EPOCH><BSTAR>.1284E-2</BSTAR><MEAN_MOTION_DOT>.11648E-3</MEAN_MOTION_DOT><MEAN_MOTION_DDOT>0</MEAN_MOTION_DDOT></tleParameters></data></segment></body></omm>
<omm id="CCSDS_OMM_VERS" version="2.0">
<header><CREATION_DATE/><ORIGINATOR/></header><body><segment><metadata><OBJECT_NAME>ORBCOMM FM08</OBJECT_NAME><OBJECT_ID>1997-084A</OBJECT_ID><CENTER_NAME>EARTH</CENTER_NAME><REF_FRAME>TEME</REF_FRAME><TIME_SYSTEM>UTC</TIME_SYSTEM><MEAN_ELEMENT_THEORY>SGP4</MEAN_ELEMENT_THEORY></metadata><data><meanElements><EPOCH>2025-02-08T00:12:01.275840</EPOCH><MEAN_MOTION>14.45025182</MEAN_MOTION><ECCENTRICITY>.0005881</ECCENTRICITY><INCLINATION>45.0130</INCLINATION><RA_OF_ASC_NODE>267.6648</RA_OF_ASC_NODE><ARG_OF_PERICENTER>319.6793</ARG_OF_PERICENTER><MEAN_ANOMALY>40.3622</MEAN_ANOMALY></meanElements><tleParameters><EPHEMERIS_TYPE>0</EPHEMERIS_TYPE><CLASSIFICATION_TYPE>U</CLASSIFICATION_TYPE><NORAD_CAT_ID>25112</NORAD_CAT_ID><ELEMENT_SET_NO>999</ELEMENT_SET_NO><REV_AT_EPOCH>42285</REV_AT_EPOCH><BSTAR>.79496E-3</BSTAR><MEAN_MOTION_DOT>.2659E-4</MEAN_MOTION_DOT><MEAN_MOTION_DDOT>0</MEAN_MOTION_DDOT></tleParameters></data></segment></body></omm>
<omm id="CCSDS_OMM_VERS" version="2.0">
<header><CREATION_DATE/><ORIGINATOR/></header><body><segment><metadata><OBJECT_NAME>ORBCOMM FM10</OBJECT_NAME><OBJECT_ID>1997-084B</OBJECT_ID><CENTER_NAME>EARTH</CENTER_NAME><REF_FRAME>TEME</REF_FRAME><TIME_SYSTEM>UTC</TIME_SYSTEM><MEAN_ELEMENT_THEORY>SGP4</MEAN_ELEMENT_THEORY></metadata><data><meanElements><EPOCH>2025-02-08T07:35:57.379776</EPOCH><MEAN_MOTION>14.44837236</MEAN_MOTION><ECCENTRICITY>.0003981</ECCENTRICITY><INCLINATION>45.0143</INCLINATION><RA_OF_ASC_NODE>268.3472</RA_OF_ASC_NODE><ARG_OF_PERICENTER>284.3189</ARG_OF_PERICENTER><MEAN_ANOMALY>75.7220</MEAN_ANOMALY></meanElements><tleParameters><EPHEMERIS_TYPE>0</EPHEMERIS_TYPE><CLASSIFICATION_TYPE>U</CLASSIFICATION_TYPE><NORAD_CAT_ID>25113</NORAD_CAT_ID><ELEMENT_SET_NO>999</ELEMENT_SET_NO><REV_AT_EPOCH>42288</REV_AT_EPOCH><BSTAR>.8462E-3</BSTAR><MEAN_MOTION_DOT>.2828E-4</MEAN_MOTION_DOT><MEAN_MOTION_DDOT>0</MEAN_MOTION_DDOT></tleParameters></data></segment></body></omm>
<omm id="CCSDS_OMM_VERS" version="2.0">
<header><CREATION_DATE/><ORIGINATOR/></header><body><segment><metadata><OBJECT_NAME>ORBCOMM FM11</OBJECT_NAME><OBJECT_ID>1997-084C</OBJECT_ID><CENTER_NAME>EARTH</CENTER_NAME><REF_FRAME>TEME</REF_FRAME><TIME_SYSTEM>UTC</TIME_SYSTEM><MEAN_ELEMENT_THEORY>SGP4</MEAN_ELEMENT_THEORY></metadata><data><meanElements><EPOCH>2025-02-07T01:18:30.942720</EPOCH><MEAN_MOTION>14.44600789</MEAN_MOTION><ECCENTRICITY>.0004865</ECCENTRICITY><INCLINATION>45.0130</INCLINATION><RA_OF_ASC_NODE>274.7988</RA_OF_ASC_NODE><ARG_OF_PERICENTER>280.9822</ARG_OF_PERICENTER><MEAN_ANOMALY>79.0482</MEAN_ANOMALY></meanElements><tleParameters><EPHEMERIS_TYPE>0</EPHEMERIS_TYPE><CLASSIFICATION_TYPE>U</CLASSIFICATION_TYPE><NORAD_CAT_ID>25114</NORAD_CAT_ID><ELEMENT_SET_NO>999</ELEMENT_SET_NO><REV_AT_EPOCH>42265</REV_AT_EPOCH><BSTAR>.87768E-3</BSTAR><MEAN_MOTION_DOT>.2923E-4</MEAN_MOTION_DOT><MEAN_MOTION_DDOT>0</MEAN_MOTION_DDOT></tleParameters></data></segment></body></omm>
<omm id="CCSDS_OMM_VERS" version="2.0">
<header><CREATION_DATE/><ORIGINATOR/></header><body><segment><metadata><OBJECT_NAME>ORBCOMM FM12</OBJECT_NAME><OBJECT_ID>1997-084D</OBJECT_ID><CENTER_NAME>EARTH</CENTER_NAME><REF_FRAME>TEME</REF_FRAME><TIME_SYSTEM>UTC</TIME_SYSTEM><MEAN_ELEMENT_THEORY>SGP4</MEAN_ELEMENT_THEORY></metadata><data><meanElements><EPOCH>2025-02-08T07:59:07.559232</EPOCH><MEAN_MOTION>14.44612319</MEAN_MOTION><ECCENTRICITY>.000378</ECCENTRICITY><INCLINATION>45.0135</INCLINATION><RA_OF_ASC_NODE>268.4369</RA_OF_ASC_NODE><ARG_OF_PERICENTER>284.8272</ARG_OF_PERICENTER><MEAN_ANOMALY>75.2160</MEAN_ANOMALY></meanElements><tleParameters><EPHEMERIS_TYPE>0</EPHEMERIS_TYPE><CLASSIFICATION_TYPE>U</CLASSIFICATION_TYPE><NORAD_CAT_ID>25115</NORAD_CAT_ID><ELEMENT_SET_NO>999</ELEMENT_SET_NO><REV_AT_EPOCH>42287</REV_AT_EPOCH><BSTAR>.7698E-3</BSTAR><MEAN_MOTION_DOT>.2547E-4</MEAN_MOTION_DOT><MEAN_MOTION_DDOT>0</MEAN_MOTION_DDOT></tleParameters></data></segment></body></omm>
<omm id="CCSDS_OMM_VERS" version="2.0">
<header><CREATION_DATE/><ORIGINATOR/></header><body><segment><metadata><OBJECT_NAME>ORBCOMM FM09</OBJECT_NAME><OBJECT_ID>1997-084E</OBJECT_ID><CENTER_NAME>EARTH</CENTER_NAME><REF_FRAME>TEME</REF_FRAME><TIME_SYSTEM>UTC</TIME_SYSTEM><MEAN_ELEMENT_THEORY>SGP4</MEAN_ELEMENT_THEORY></metadata><data><meanElements><EPOCH>2025-02-08T08:30:55.296288</EPOCH><MEAN_MOTION>14.44511731</MEAN_MOTION><ECCENTRICITY>.0005084</ECCENTRICITY><INCLINATION>45.0140</INCLINATION><RA_OF_ASC_NODE>269.1454</RA_OF_ASC_NODE><ARG_OF_PERICENTER>269.2173</ARG_OF_PERICENTER><MEAN_ANOMALY>90.8096</MEAN_ANOMALY></meanElements><tleParameters><EPHEMERIS_TYPE>0</EPHEMERIS_TYPE><CLASSIFICATION_TYPE>U</CLASSIFICATION_TYPE><NORAD_CAT_ID>25116</NORAD_CAT_ID><ELEMENT_SET_NO>999</ELEMENT_SET_NO><REV_AT_EPOCH>42287</REV_AT_EPOCH><BSTAR>.73314E-3</BSTAR><MEAN_MOTION_DOT>.2413E-4</MEAN_MOTION_DOT><MEAN_MOTION_DDOT>0</MEAN_MOTION_DDOT></tleParameters></data></segment></body></omm>

</ndm>
