ORBCOMM-X               
1 21576U 91050C   25038.79671898  .00000687  00000+0  21768-3 0  9996
2 21576  98.3604 107.9537 0003165 200.1681 159.9385 14.43077477763457
ORBCOMM FM01            
1 23545U 95017A   25039.41759784  .00009203  00000+0  10235-2 0  9991
2 23545  69.9646  34.6733 0003793 225.9468 134.1373 14.87409322593699
ORBCOMM FM02            
1 23546U 95017B   25038.47134869  .00011648  00000+0  12840-2 0  9998
2 23546  69.9660  56.6969 0004233 211.1325 148.9578 14.87678816592842
ORBCOMM FM08            
1 25112U 97084A   25039.00834810  .00002659  00000+0  79496-3 0  9991
2 25112  45.0130 267.6648 0005881 319.6793  40.3622 14.45025182422855
ORBCOMM FM10            
1 25113U 97084B   25039.31663634  .00002828  00000+0  84620-3 0  9993
2 25113  45.0143 268.3472 0003981 284.3189  75.7220 14.44837236422888
ORBCOMM FM11            
1 25114U 97084C   25038.05452480  .00002923  00000+0  87768-3 0  9991
2 25114  45.0130 274.7988 0004865 280.9822  79.0482 14.44600789422659
ORBCOMM FM12            
1 25115U 97084D   25039.33272638  .00002547  00000+0  76980-3 0  9995
2 25115  45.0135 268.4369 0003780 284.8272  75.2160 14.44612319422872
ORBCOMM FM09            
1 25116U 97084E   25039.35480667  .00002413  00000+0  73314-3 0  9991
2 25116  45.0140 269.1454 0005084 269.2173  90.8096 14.44511731422875
